{
  "norad_id": 27438,
  "name": "INTELSAT 905 (IS-905)",
  "history": [
    {
      "epoch": "2026-03-28T14:07:54.067008Z",
      "apogee_km": 35799.342066879835,
      "perigee_km": 35773.495194278294,
      "latitude_deg": -1.1181070005239617,
      "longitude_deg": -137.28265079713225,
      "height_km": 35791.1190013535,
      "semi_major_axis_km": 42164.55563057907,
      "eccentricity": 0.0003065,
      "inclination_deg": 6.5526,
      "raan_deg": 70.7566,
      "arg_perigee_deg": 302.9923,
      "mean_anomaly_deg": 247.0266,
      "mean_motion_rev_day": 1.00272414
    },
    {
      "epoch": "2026-03-29T00:04:38.606304Z",
      "apogee_km": 35799.40487480827,
      "perigee_km": 35773.33034515746,
      "latitude_deg": -2.288557294384623,
      "longitude_deg": -137.04821302993457,
      "height_km": 35775.58339737038,
      "semi_major_axis_km": 42164.50460998287,
      "eccentricity": 0.0003092,
      "inclination_deg": 6.5537,
      "raan_deg": 70.7516,
      "arg_perigee_deg": 303.9568,
      "mean_anomaly_deg": 35.6616,
      "mean_motion_rev_day": 1.00272596
    },
    {
      "epoch": "2026-03-29T00:04:38.607168Z",
      "apogee_km": 35799.40445316323,
      "perigee_km": 35773.33076680251,
      "latitude_deg": -2.2885466781425703,
      "longitude_deg": -137.04811780456458,
      "height_km": 35775.58373927527,
      "semi_major_axis_km": 42164.50460998287,
      "eccentricity": 0.00030919,
      "inclination_deg": 6.5537,
      "raan_deg": 70.7516,
      "arg_perigee_deg": 303.9569,
      "mean_anomaly_deg": 35.6616,
      "mean_motion_rev_day": 1.00272596
    },
    {
      "epoch": "2026-04-01T14:34:30.652608Z",
      "apogee_km": 35799.866069517906,
      "perigee_km": 35772.93979431738,
      "latitude_deg": -2.291486792472596,
      "longitude_deg": -137.35643626023824,
      "height_km": 35790.794699782666,
      "semi_major_axis_km": 42164.53993191765,
      "eccentricity": 0.0003193,
      "inclination_deg": 6.5627,
      "raan_deg": 70.7094,
      "arg_perigee_deg": 310.455,
      "mean_anomaly_deg": 250.2193,
      "mean_motion_rev_day": 1.0027247
    },
    {
      "epoch": "2026-04-02T13:55:35.141376Z",
      "apogee_km": 35799.90493043228,
      "perigee_km": 35772.6093882293,
      "latitude_deg": -1.3350974168077663,
      "longitude_deg": -137.30465386048596,
      "height_km": 35792.86699082383,
      "semi_major_axis_km": 42164.3941593308,
      "eccentricity": 0.00032368,
      "inclination_deg": 6.565,
      "raan_deg": 70.6977,
      "arg_perigee_deg": 312.3122,
      "mean_anomaly_deg": 239.6048,
      "mean_motion_rev_day": 1.0027299
    },
    {
      "epoch": "2026-04-03T01:54:25.943616Z",
      "apogee_km": 35799.98571889245,
      "perigee_km": 35772.43384813023,
      "latitude_deg": 1.3665373058018067,
      "longitude_deg": -137.24740001247628,
      "height_km": 35777.92187731258,
      "semi_major_axis_km": 42164.34678351135,
      "eccentricity": 0.00032672,
      "inclination_deg": 6.5662,
      "raan_deg": 70.6915,
      "arg_perigee_deg": 315.6989,
      "mean_anomaly_deg": 56.4288,
      "mean_motion_rev_day": 1.00273159
    },
    {
      "epoch": "2026-04-09T21:09:23.169024Z",
      "apogee_km": 35800.131551235085,
      "perigee_km": 35773.27254876023,
      "latitude_deg": -5.2028386773647615,
      "longitude_deg": -137.02819470038196,
      "height_km": 35773.93185798594,
      "semi_major_axis_km": 42164.83904999766,
      "eccentricity": 0.0003185,
      "inclination_deg": 6.5822,
      "raan_deg": 70.6079,
      "arg_perigee_deg": 320.9425,
      "mean_anomaly_deg": 346.717,
      "mean_motion_rev_day": 1.00271403
    },
    {
      "epoch": "2026-04-10T11:53:14.294976Z",
      "apogee_km": 35800.1136542759,
      "perigee_km": 35773.21251182291,
      "latitude_deg": 1.2326754739778365,
      "longitude_deg": -137.14744604809457,
      "height_km": 35798.05948674151,
      "semi_major_axis_km": 42164.800083049406,
      "eccentricity": 0.000319,
      "inclination_deg": 6.5836,
      "raan_deg": 70.6002,
      "arg_perigee_deg": 322.4901,
      "mean_anomaly_deg": 206.7441,
      "mean_motion_rev_day": 1.00271542
    },
    {
      "epoch": "2026-04-11T13:33:18.415008Z",
      "apogee_km": 35799.95304889446,
      "perigee_km": 35773.22061398533,
      "latitude_deg": -1.7240275168545351,
      "longitude_deg": -137.32671040372188,
      "height_km": 35794.65528544589,
      "semi_major_axis_km": 42164.7238314399,
      "eccentricity": 0.000317,
      "inclination_deg": 6.5862,
      "raan_deg": 70.587,
      "arg_perigee_deg": 323.7702,
      "mean_anomaly_deg": 231.5477,
      "mean_motion_rev_day": 1.00271814
    },
    {
      "epoch": "2026-04-13T01:29:30.656832Z",
      "apogee_km": 35799.738102380725,
      "perigee_km": 35773.24100776098,
      "latitude_deg": 1.7892701941424596,
      "longitude_deg": -137.28044974307994,
      "height_km": 35777.274156648746,
      "semi_major_axis_km": 42164.626555070856,
      "eccentricity": 0.00031421,
      "inclination_deg": 6.5899,
      "raan_deg": 70.5685,
      "arg_perigee_deg": 325.7948,
      "mean_anomaly_deg": 50.069,
      "mean_motion_rev_day": 1.00272161
    },
    {
      "epoch": "2026-04-14T13:25:34.699296Z",
      "apogee_km": 35799.576428123975,
      "perigee_km": 35773.788424562816,
      "latitude_deg": -1.8402097369587864,
      "longitude_deg": -137.3409875172857,
      "height_km": 35794.58294136697,
      "semi_major_axis_km": 42164.8194263434,
      "eccentricity": 0.0003058,
      "inclination_deg": 6.5938,
      "raan_deg": 70.5496,
      "arg_perigee_deg": 325.4168,
      "mean_anomaly_deg": 230.9541,
      "mean_motion_rev_day": 1.00271473
    },
    {
      "epoch": "2026-04-15T13:22:59.961216Z",
      "apogee_km": 35799.39332899209,
      "perigee_km": 35773.82462703102,
      "latitude_deg": -1.8804906596218143,
      "longitude_deg": -137.34458588216327,
      "height_km": 35794.55696030008,
      "semi_major_axis_km": 42164.74597801155,
      "eccentricity": 0.0003032,
      "inclination_deg": 6.5965,
      "raan_deg": 70.5373,
      "arg_perigee_deg": 326.3846,
      "mean_anomaly_deg": 230.3371,
      "mean_motion_rev_day": 1.00271735
    },
    {
      "epoch": "2026-04-16T14:59:35.496096Z",
      "apogee_km": 35799.19169235189,
      "perigee_km": 35773.86759356613,
      "latitude_deg": -4.38755095931184,
      "longitude_deg": -137.43617406528116,
      "height_km": 35790.04434151628,
      "semi_major_axis_km": 42164.66664295901,
      "eccentricity": 0.0003003,
      "inclination_deg": 6.5994,
      "raan_deg": 70.5241,
      "arg_perigee_deg": 327.1497,
      "mean_anomaly_deg": 254.7854,
      "mean_motion_rev_day": 1.00272018
    },
    {
      "epoch": "2026-04-17T15:10:28.629120Z",
      "apogee_km": 35799.032935430514,
      "perigee_km": 35773.85814977763,
      "latitude_deg": -4.7010853157093635,
      "longitude_deg": -137.43580186388886,
      "height_km": 35789.418356892995,
      "semi_major_axis_km": 42164.582542604076,
      "eccentricity": 0.00029853,
      "inclination_deg": 6.6022,
      "raan_deg": 70.512,
      "arg_perigee_deg": 328.1501,
      "mean_anomaly_deg": 257.5129,
      "mean_motion_rev_day": 1.00272318
    },
    {
      "epoch": "2026-04-18T13:15:19.111392Z",
      "apogee_km": 35798.91803030473,
      "perigee_km": 35773.80485503227,
      "latitude_deg": -2.0080687995099673,
      "longitude_deg": -137.34425728998497,
      "height_km": 35794.44494343475,
      "semi_major_axis_km": 42164.498442668504,
      "eccentricity": 0.0002978,
      "inclination_deg": 6.6048,
      "raan_deg": 70.5013,
      "arg_perigee_deg": 328.9427,
      "mean_anomaly_deg": 228.8504,
      "mean_motion_rev_day": 1.00272618
    },
    {
      "epoch": "2026-04-19T14:56:44.882016Z",
      "apogee_km": 35798.81877359347,
      "perigee_km": 35773.697227052275,
      "latitude_deg": -4.593086330412968,
      "longitude_deg": -137.4247451493495,
      "height_km": 35789.895457431776,
      "semi_major_axis_km": 42164.395000322875,
      "eccentricity": 0.0002979,
      "inclination_deg": 6.6078,
      "raan_deg": 70.4883,
      "arg_perigee_deg": 329.913,
      "mean_anomaly_deg": 254.3094,
      "mean_motion_rev_day": 1.00272987
    },
    {
      "epoch": "2026-04-20T11:27:36.820800Z",
      "apogee_km": 35798.822926455745,
      "perigee_km": 35773.51422367737,
      "latitude_deg": 0.8208973716726583,
      "longitude_deg": -137.1602998917462,
      "height_km": 35797.38422324091,
      "semi_major_axis_km": 42164.30557506656,
      "eccentricity": 0.00030012,
      "inclination_deg": 6.6102,
      "raan_deg": 70.4785,
      "arg_perigee_deg": 331.1791,
      "mean_anomaly_deg": 201.6161,
      "mean_motion_rev_day": 1.00273306
    },
    {
      "epoch": "2026-04-21T13:07:44.679360Z",
      "apogee_km": 35800.0064771182,
      "perigee_km": 35773.619651368,
      "latitude_deg": -2.1360025305561248,
      "longitude_deg": -137.34328015536215,
      "height_km": 35795.460515089435,
      "semi_major_axis_km": 42164.9500642431,
      "eccentricity": 0.0003129,
      "inclination_deg": 6.6134,
      "raan_deg": 70.4661,
      "arg_perigee_deg": 330.7518,
      "mean_anomaly_deg": 228.1332,
      "mean_motion_rev_day": 1.00271007
    },
    {
      "epoch": "2026-04-22T15:09:39.336192Z",
      "apogee_km": 35800.07408388677,
      "perigee_km": 35773.198257467775,
      "latitude_deg": -5.089925353226627,
      "longitude_deg": -137.42182958730473,
      "height_km": 35789.66342614125,
      "semi_major_axis_km": 42164.773170677276,
      "eccentricity": 0.0003187,
      "inclination_deg": 6.6163,
      "raan_deg": 70.4536,
      "arg_perigee_deg": 332.0278,
      "mean_anomaly_deg": 258.4151,
      "mean_motion_rev_day": 1.00271638
    }
  ]
}